SBSS (USA 216)          
1 37168U 10048A   26068.88624904  .00004946  00000+0  24191-3 0  9993
2 37168  97.7474 312.3885 0082264 184.8326 306.5835 15.15724210837421
STARLINK-34668          
1 64814U 25150AA  26068.52033217  .00004768  00000+0  40691-3 0  9998
2 64814  70.0026 134.7911 0003050 263.5528  96.5283 14.98347824 36490
