[{"OBJECT_NAME":"SBSS (USA 216)","OBJECT_ID":"2010-048A","EPOCH":"2026-03-09T21:16:11.917056","MEAN_MOTION":15.1572421,"ECCENTRICITY":0.0082264,"INCLINATION":97.7474,"RA_OF_ASC_NODE":312.3885,"ARG_OF_PERICENTER":184.8326,"MEAN_ANOMALY":306.5835,"EPHEMERIS_TYPE":0,"CLASSIFICATION_TYPE":"U","NORAD_CAT_ID":37168,"ELEMENT_SET_NO":999,"REV_AT_EPOCH":83742,"BSTAR":0.00024191,"MEAN_MOTION_DOT":4.946e-5,"MEAN_MOTION_DDOT":0},{"OBJECT_NAME":"STARLINK-34668","OBJECT_ID":"2025-150AA","EPOCH":"2026-03-09T12:29:16.699488","MEAN_MOTION":14.98347824,"ECCENTRICITY":0.000305,"INCLINATION":70.0026,"RA_OF_ASC_NODE":134.7911,"ARG_OF_PERICENTER":263.5528,"MEAN_ANOMALY":96.5283,"EPHEMERIS_TYPE":0,"CLASSIFICATION_TYPE":"U","NORAD_CAT_ID":64814,"ELEMENT_SET_NO":999,"REV_AT_EPOCH":3649,"BSTAR":0.00040691444,"MEAN_MOTION_DOT":4.768e-5,"MEAN_MOTION_DDOT":0}]
